# Made by eph2tle, compiled Jan 12 2025 12:34:55
# Run at Wed Jan 22 16:49:06 2025 UTC
#
#    The following TLEs (Two-Line Elements) were generated by fitting
# a numerically-integrated ephemeris,  based on the orbit given below,
# to the SDP4/SGP4 models.  Each TLE is good for the interval between
# its epoch and the epoch of the subsequent TLE (usually one day).
# The maximum deviation between the numerically integrated ephemerides
# and the TLE-based ephemeris, in kilometers,  is given for each TLE
# as the "worst residual".
#
#    This fitting is done using the 'eph2tle' code packaged with Find_Orb.
# The code has details on how the TLEs were computed :
#
#    https://github.com/Bill-Gray/find_orb/eph2tle.cpp
#
#    Be warned:  the error given is that between the numerically
# integrated ephems and the TLE model.  There will usually be at
# least some additional difference between the ephems and the actual
# motion of the satellite,  especially if the ephemerides are based
# on a short arc.  If the following orbital elements say something
# like "[based on] 10 observations 2015 Jan. 1-13",  and the TLEs
# are for 2015 May,  the extrapolation may be tenuous at best.  If
# your application requires a specific level of accuracy,  you may
# want to contact me;  I can give you some idea as to the fit of the
# underlying data (and possibly TLEs based on newer data).
#
#   You can usually find the underlying observational data,  and the
# fitted orbit,  residuals,  ephemerides,  and sometimes some comments
# about the object,  among the pages listed at
#
#    https://www.projectpluto.com/pluto/mpecs/pseudo.htm
#
#    WARNING:  for this object,  "normal" TLEs cannot be fitted.  (This
# usually means an object with an hyperbolic or nearly-parabolic orbit.)
# For this and similar cases,   an alternative model is used,  in which
# most of the traditional TLE data is replaced by six signed 8-digit hex
# numbers.  These six numbers are a state vector,  numerically integrated
# using a simplified force model.  This is necessary for objects at L2 or
# L1,  and sometimes for objects in high orbits where the SDP4/SGP4 model
# fails.  Some documentation is in 'get_el.cpp' in the source code at
# https://www.github.com/Bill-Gray/sat_code ; look for 'hex' in that file,
# with the actual integration done in 'sdp4.cpp'.  But be aware:  it's my
# own extension,  doesn't work with other code,  and is therefore used
# only when necessary.
#
#    Also,  if you use a TLE outside the "correct" time range (between
# its MJD and that of the next TLE),  all bets are off.  I've carefully
# computed and minimized the worst error over the "correct" time frame,
# but the ephemeris may (or may not) diverge wildly outside of it.
#
# Ephem range: 60697.000000 60827.000000 1.000000
# Created Wed Jan 22 11:49:02 2025
# Ephemeris start: 22 Jan 2025  0:00:00
# Ephemeris end:    1 Jun 2025  0:00:00
# Times are all TDT
# Positions/velocities are in equatorial J2000
# Orbital elements:  WMAP
#    Perihelion 2010 Dec 4.539728 +/- 0.000623 TT = 12:57:12.5 (JD 2455535.039728)
# Epoch 2010 Dec 11.0 TT; AMR 0.035305 +/- 0.00113 m^2/kg   Earth MOID: 0.0138
# M   5.963171858 +/- 0.00056         (J2000 ecliptic)             Find_Orb
# n   0.923052796 +/- 1.39e-6         Peri.   30.087520 +/- 0.0009
# a   1.044684187 +/- 1.05e-6         Node    41.912914 +/- 0.00034
# e   0.04213213 +/- 6.67e-7          Incl.    0.165909 +/- 0.0000050
# P   1.068/390.003d         H 26.61  G  0.15   U  3.7
# q 1.000669416 +/- 3.09e-7    Q 1.088698958 +/- 1.79e-6
# 51 of 148 observations 2010 Nov. 1-2011 Jan. 19; mean residual 0".549
#
# 1 NoradU COSPAR   Epoch.epoch     dn/dt/2  d2n/dt2/6 BSTAR    T El# C
# 2 NoradU Inclina RAAscNode Eccent  ArgPeri MeanAno  MeanMotion Rev# C

# Worst residual: 7.61 km
# MJD 60697.000000 (2025 Jan 22  0:00)
WMAP
1 26859U 01027A   25021.99919926 -06VEA7RF -020IX2XB -00O44XNMH 25796
2 26859                          +0008VZRH -0009F1HO -000444OL     04

# Worst residual: 7.67 km
# MJD 60698.000000 (2025 Jan 23  0:00)
WMAP
1 26859U 01027A   25022.99919926 -06T8USML -022QWRRP -00P34GJHH 25797
2 26859                          +000915RP -00093H96 -0003ZE4X     03

# Worst residual: 7.81 km
# MJD 60699.000000 (2025 Jan 24  0:00)
WMAP
1 26859U 01027A   25023.99919926 -06R28HYP -024W3U6A -00Q0YP4CH 25798
2 26859                          +00095WX1 -0008RR37 -0003UKOX     00

# Worst residual: 7.96 km
# MJD 60700.000000 (2025 Jan 25  0:00)
WMAP
1 26859U 01027A   25024.99919926 -06OUIZEZ -026YGXY3 -00QXMZUVH 25791
2 26859                          +0009A8GC -0008FVPR -0003POPI     02

# Worst residual: 8.07 km
# MJD 60701.000000 (2025 Jan 26  0:00)
WMAP
1 26859U 01027A   25025.99919926 -06MLU31J -028XYXOE -00RT4SMHH 25799
2 26859                          +0009E3NH -00083VZO -0003KQM9     09

# Worst residual: 8.07 km
# MJD 60702.000000 (2025 Jan 27  0:00)
WMAP
1 26859U 01027A   25026.99919926 -06KC9SW1 -02AUKW28 -00SNFNF3H 25797
2 26859                          +0009HHV3 -0007RSXT -0003FQY3     09

# Worst residual: 7.96 km
# MJD 60703.000000 (2025 Jan 28  0:00)
WMAP
1 26859U 01027A   25027.99919926 -06I1Y9ZX -02COA5H3 -00TGJ97XH 25799
2 26859                          +0009KELI -0007FNRZ -0003AQBM     03

# Worst residual: 7.79 km
# MJD 60704.000000 (2025 Jan 29  0:00)
WMAP
1 26859U 01027A   25028.99919926 -06FQZQKR -02EF2DKS -00U8FGUZH 25796
2 26859                          +0009MTMN -00073HW7 -00035PGV     08

# Worst residual: 7.63 km
# MJD 60705.000000 (2025 Jan 30  0:00)
WMAP
1 26859U 01027A   25029.99919926 -06DFIF8F -02G2XKKA -00UZ4BP4H 25795
2 26859                          +0009OR3W -0006RCSA -00030P5V     00

# Worst residual: 7.53 km
# MJD 60706.000000 (2025 Jan 31  0:00)
WMAP
1 26859U 01027A   25030.99919926 -06B3MHDT -02HNW3JV -00VOM1TDH 25796
2 26859                          +0009Q7MP -0006F9X9 -0002VQ67     09

# Worst residual: 7.49 km
# MJD 60707.000000 (2025 Feb  1  0:00)
WMAP
1 26859U 01027A   25031.99919926 -068RFVCC -02J5YNQP -00WCX1K0H 25794
2 26859                          +0009R88H -00063ALS -0002QT5U     05

# Worst residual: 7.46 km
# MJD 60708.000000 (2025 Feb  2  0:00)
WMAP
1 26859U 01027A   25032.99919926 -066F28UB -02KL687S -00X01UAWH 25799
2 26859                          +0009RUB7 -0005RFST -0002LYMG     07

# Worst residual: 7.42 km
# MJD 60709.000000 (2025 Feb  3  0:00)
WMAP
1 26859U 01027A   25033.99919926 -0642KWOB -02LXJYOC -00XM12P5H 25796
2 26859                          +0009S3FM -0005FQ27 -0002H6TB     08

# Worst residual: 7.33 km
# MJD 60710.000000 (2025 Feb  4  0:00)
WMAP
1 26859U 01027A   25034.99919926 -061Q2RWC -02N753P6 -00Y6VEL6H 25799
2 26859                          +0009S16D -000545I6 -0002CHR9     01

# Worst residual: 7.22 km
# MJD 60711.000000 (2025 Feb  5  0:00)
WMAP
1 26859U 01027A   25035.99919926 -05ZDMEKH -02ODYV5D -00YQLH2EH 25790
2 26859                          +0009ROY9 -0004SPV2 -00027V9G     06

# Worst residual: 7.10 km
# MJD 60712.000000 (2025 Feb  6  0:00)
WMAP
1 26859U 01027A   25036.99919926 -05X1A1OP -02PI2D8D -00Z97UV7H 25799
2 26859                          +0009R3W6 -0004HEKN -00023AZE     01

# Worst residual: 6.98 km
# MJD 60713.000000 (2025 Feb  7  0:00)
WMAP
1 26859U 01027A   25037.99919926 -05UP3PUL -02QJGKEV -00ZQR186H 25793
2 26859                          +0009QAT0 -000466VV -0001YSGS     00

# Worst residual: 6.88 km
# MJD 60714.000000 (2025 Feb  8  0:00)
WMAP
1 26859U 01027A   25038.99919926 -05SD5A8K -02RI6875 -01077D8HH 25798
2 26859                          +0009PA50 -0003V1YE -0001UB7M     00

# Worst residual: 6.78 km
# MJD 60715.000000 (2025 Feb  9  0:00)
WMAP
1 26859U 01027A   25039.99919926 -05Q1GJLY -02SE7WPO -010ML3LHH 25799
2 26859                          +0009O208 -0003JYXI -0001PUPO     07

# Worst residual: 6.70 km
# MJD 60716.000000 (2025 Feb 10  0:00)
WMAP
1 26859U 01027A   25040.99919926 -05NQ3B55 -02T7LYYE -0110WCS9H 25790
2 26859                          +0009MM7C -00038X0Y -0001LEI4     06

# Worst residual: 6.66 km
# MJD 60717.000000 (2025 Feb 11  0:00)
WMAP
1 26859U 01027A   25041.99919926 -05LF3GYU -02TYCLNB -011E55IBH 25795
2 26859                          +0009KY9D -0002XVL1 -0001GY6M     02

# Worst residual: 6.65 km
# MJD 60718.000000 (2025 Feb 12  0:00)
WMAP
1 26859U 01027A   25042.99919926 -05J4J294 -02UMFUL1 -011QBFGGH 25793
2 26859                          +0009J1HP -0002MU4M -0001CHGG     01

# Worst residual: 6.67 km
# MJD 60719.000000 (2025 Feb 13  0:00)
WMAP
1 26859U 01027A   25043.99919926 -05GUGAPR -02V7VOC0 -0121F28GH 25793
2 26859                          +0009GV2V -0002BSE3 -00018051     05

# Worst residual: 6.69 km
# MJD 60720.000000 (2025 Feb 14  0:00)
WMAP
1 26859U 01027A   25044.99919926 -05EKXLGS -02VQO03Z -012BFWDYH 25799
2 26859                          +0009EE55 -00020QBR -00013I64     09

# Worst residual: 6.68 km
# MJD 60721.000000 (2025 Feb 15  0:00)
WMAP
1 26859U 01027A   25045.99919926 -05CC1L8C -02W6SRMG -012KDSEZH 25792
2 26859                          +0009BLT6 -0001PO39 -0000YZLH     02

# Worst residual: 6.64 km
# MJD 60722.000000 (2025 Feb 16  0:00)
WMAP
1 26859U 01027A   25046.99919926 -05A3V417 -02WK9YPI -012S8LO4H 25794
2 26859                          +00098H9S -0001EM0G -0000UGKB     01

# Worst residual: 6.57 km
# MJD 60723.000000 (2025 Feb 17  0:00)
WMAP
1 26859U 01027A   25047.99919926 -057WH6IR -02WV3OMW -012Z092DH 25796
2 26859                          +00094ZSZ -00013KJW -0000PXAD     01

# Worst residual: 6.52 km
# MJD 60724.000000 (2025 Feb 18  0:00)
WMAP
1 26859U 01027A   25048.99919926 -055PYZ5L -02X3A532 -0134OPM7H 25795
2 26859                          +000914SC -0000SK9I -0000LE18     06

# Worst residual: 6.53 km
# MJD 60725.000000 (2025 Feb 19  0:00)
WMAP
1 26859U 01027A   25049.99919926 -053KFTF1 -02X8TOT9 -0139A0T3H 25795
2 26859                          +0008WVOC -0000HLRL -0000GV3U     05

